SUOMI NPP               
1 37849U 11061A   26198.93143411  .00000031  00000+0  35640-4 0  9997
2 37849  98.7955 139.5986 0000876 200.3898 159.7243 14.19522904762809
YAOGAN-12               
1 37875U 11066B   26198.93852676  .00003085  00000+0  11917-3 0  9993
2 37875  97.1121 236.0640 0011015 113.6385 246.6012 15.26910321816735
BEIDOU-2 M4             
1 38251U 12018B   26197.65376425 -.00000078  00000+0  00000+0 0  9998
2 38251  55.6306 303.0936 0012145 272.2408  87.6521  1.86229271 96493
ARIRANG-3 (KOMPSAT-3)   
1 38338U 12025B   26198.96304807  .00000191  00000+0  47194-4 0  9997
2 38338  98.1187 155.8954 0006053  31.3489 328.8072 14.62230374755841
METOP-B                 
1 38771U 12049A   26198.95041706  .00000040  00000+0  37966-4 0  9998
2 38771  98.6488 249.8333 0001172 239.8785 120.2276 14.21446852717637
SJ-9A                   
1 38860U 12056A   26198.88003423  .00000476  00000+0  60878-4 0  9992
2 38860  97.6731 169.7262 0026204 153.1454 207.1124 14.85531550704140
COSMOS 2484 (RODNIK-S 6)
1 39059U 13001C   26198.97506984  .00000204  00000+0  13975-2 0  9997
2 39059  82.4993 202.7510 0025543 329.4527  30.5063 12.42941296612388
SARAL                   
1 39086U 13009A   26198.90564232  .00000019  00000+0  22853-4 0  9999
2 39086  98.5557  25.0846 0001864 160.2329 199.8927 14.32896219700001
STRAND-1                
1 39090U 13009E   26198.48055263  .00000107  00000+0  50178-4 0  9995
2 39090  98.3936  17.9715 0009516 134.8937 225.3024 14.37179617701414
BRITE-AUSTRIA           
1 39091U 13009F   26198.78518510  .00000059  00000+0  34436-4 0  9993
2 39091  98.4011  17.4659 0010906 143.4124 216.7810 14.36553072701441
GAOFEN-1                
1 39150U 13018A   26198.96511319  .00000324  00000+0  53638-4 0  9999
2 39150  97.9083 270.4053 0017293 162.3799 197.8015 14.76520264712789
NEE-01 PEGASO           
1 39151U 13018B   26198.87882650  .00001460  00000+0  14326-3 0  9991
2 39151  98.1261 344.0523 0013625  66.4608 293.8041 14.93796575715282
PROBA-V                 
1 39159U 13021A   26198.90379067  .00000003  00000+0  19181-4 0  9997
2 39159  98.3607 175.9974 0005153  53.6186 306.5469 14.23603610685487
ARIRANG-5 (KOMPSAT-5)   
1 39227U 13042A   26198.95941591  .00000195  00000+0  18294-4 0  9994
2 39227  97.6201  25.2276 0005125  50.6747 309.4933 15.04496072708482
GONETS-M 5              
1 39249U 13048A   26198.94520081 -.00000102  00000+0 -81065-3 0  9995
2 39249  82.4860 324.2065 0017457 143.9767 216.2493 12.42892181582707
GONETS-M 7              
1 39251U 13048C   26198.90759903 -.00000005  00000+0 -10857-3 0  9994
2 39251  82.4927 327.1682 0018261 145.2795 214.9480 12.42915267582657
FENGYUN 3C              
1 39260U 13052A   26198.92806043  .00000007  00000+0  24874-4 0  9994
2 39260  98.5001 171.3949 0013566 297.4722  62.5073 14.15761113662910
CASSIOPE                
1 39265U 13055A   26198.90357321  .00016250 -53665-6  17374-3 0  9996
2 39265  80.9128  29.3384 0282418 318.6934  39.3234 15.27514382672358
APRIZESAT 7             
1 39416U 13066A   26198.81134073  .00000670  00000+0  71493-4 0  9992
2 39416  97.7723 151.5946 0037292 108.9782 251.5484 14.91622296685795
ZACUBE-1 (TSHEPISOSAT)  
1 39417U 13066B   26198.86726362  .00001255  00000+0  10038-3 0  9993
2 39417  97.8005 161.3542 0044051 146.6146 213.7870 15.01335799685335
APRIZESAT 8             
1 39425U 13066K   26198.81217198  .00000341  00000+0  42945-4 0  9997
2 39425  97.8230 145.8560 0045725 183.2261 176.8667 14.87698360684224
