OBJECT_NAME,OBJECT_ID,EPOCH,MEAN_MOTION,ECCENTRICITY,INCLINATION,RA_OF_ASC_NODE,ARG_OF_PERICENTER,MEAN_ANOMALY,EPHEMERIS_TYPE,CLASSIFICATION_TYPE,NORAD_CAT_ID,ELEMENT_SET_NO,REV_AT_EPOCH,BSTAR,MEAN_MOTION_DOT,MEAN_MOTION_DDOT
SUOMI NPP,2011-061A,2026-07-17T22:21:15.907104,14.19522904,.00008766,98.7955,139.5986,200.3898,159.7243,0,U,37849,999,76280,.35639729E-4,.31E-6,0
YAOGAN-12,2011-066B,2026-07-17T22:31:28.712064,15.26910321,.00110159,97.1121,236.0640,113.6385,246.6012,0,U,37875,999,81673,.11916774E-3,.3085E-4,0
BEIDOU-2 M4,2012-018B,2026-07-16T15:41:25.231200,1.86229271,.0012145,55.6306,303.0936,272.2408,87.6521,0,U,38251,999,9649,0,-.78E-6,0
ARIRANG-3 (KOMPSAT-3),2012-025B,2026-07-17T23:06:47.353248,14.62230374,.0006053,98.1187,155.8954,31.3489,328.8072,0,U,38338,999,75584,.47194269E-4,.191E-5,0
METOP-B,2012-049A,2026-07-17T22:48:36.033984,14.21446852,.00011723,98.6488,249.8333,239.8785,120.2276,0,U,38771,999,71763,.3796639E-4,.4E-6,0
SJ-9A,2012-056A,2026-07-17T21:07:14.957472,14.85531550,.00262044,97.6731,169.7262,153.1454,207.1124,0,U,38860,999,70414,.60877949E-4,.476E-5,0
COSMOS 2484 (RODNIK-S 6),2013-001C,2026-07-17T23:24:06.034176,12.42941296,.00255433,82.4993,202.7510,329.4527,30.5063,0,U,39059,999,61238,.13975303E-2,.204E-5,0
SARAL,2013-009A,2026-07-17T21:44:07.496448,14.32896219,.0001864,98.5557,25.0846,160.2329,199.8927,0,U,39086,999,70000,.22853464E-4,.19E-6,0
STRAND-1,2013-009E,2026-07-17T11:31:59.747232,14.37179617,.0009516,98.3936,17.9715,134.8937,225.3024,0,U,39090,999,70141,.50178E-4,.107E-5,0
BRITE-AUSTRIA,2013-009F,2026-07-17T18:50:39.992640,14.36553072,.00109061,98.4011,17.4659,143.4124,216.7810,0,U,39091,999,70144,.34435987E-4,.59E-6,0
GAOFEN-1,2013-018A,2026-07-17T23:09:45.779616,14.76520264,.00172935,97.9083,270.4053,162.3799,197.8015,0,U,39150,999,71278,.53637677E-4,.324E-5,0
NEE-01 PEGASO,2013-018B,2026-07-17T21:05:30.609600,14.93796575,.00136255,98.1261,344.0523,66.4608,293.8041,0,U,39151,999,71528,.14325628E-3,.146E-4,0
PROBA-V,2013-021A,2026-07-17T21:41:27.513888,14.23603610,.0005153,98.3607,175.9974,53.6186,306.5469,0,U,39159,999,68548,.19181087E-4,.3E-7,0
ARIRANG-5 (KOMPSAT-5),2013-042A,2026-07-17T23:01:33.534624,15.04496072,.00051258,97.6201,25.2276,50.6747,309.4933,0,U,39227,999,70848,.18294381E-4,.195E-5,0
GONETS-M 5,2013-048A,2026-07-17T22:41:05.349984,12.42892181,.00174575,82.4860,324.2065,143.9767,216.2493,0,U,39249,999,58270,-.81064973E-3,-.102E-5,0
GONETS-M 7,2013-048C,2026-07-17T21:46:56.556192,12.42915267,.00182612,82.4927,327.1682,145.2795,214.9480,0,U,39251,999,58265,-.108572E-3,-.5E-7,0
FENGYUN 3C,2013-052A,2026-07-17T22:16:24.421152,14.15761113,.00135663,98.5001,171.3949,297.4722,62.5073,0,U,39260,999,66291,.24873802E-4,.7E-7,0
CASSIOPE,2013-055A,2026-07-17T21:41:08.725344,15.27514382,.02824187,80.9128,29.3384,318.6934,39.3234,0,U,39265,999,67235,.17373998E-3,.1625E-3,-.536653E-6
APRIZESAT 7,2013-066A,2026-07-17T19:28:19.839072,14.91622296,.00372921,97.7723,151.5946,108.9782,251.5484,0,U,39416,999,68579,.71493424E-4,.67E-5,0
ZACUBE-1 (TSHEPISOSAT),2013-066B,2026-07-17T20:48:51.576768,15.01335799,.00440515,97.8005,161.3542,146.6146,213.7870,0,U,39417,999,68533,.10037859E-3,.1255E-4,0
APRIZESAT 8,2013-066K,2026-07-17T19:29:31.659072,14.87698360,.00457256,97.8230,145.8560,183.2261,176.8667,0,U,39425,999,68422,.42944822E-4,.341E-5,0
